0 DELTA 1 DEB
1  1313U 65004D   19112.79433070 -.00000355 +00000-0 -51815-3 0  9998
2  1313 096.4178 231.6877 1178305 102.7438 270.7678 12.00351777372977
0 DELTA 1 DEB
1  1313U 65004D   19113.29443685 -.00000338  00000-0 -49321-3 0  9997
2  1313  96.4178 231.9402 1178293 101.6852 271.8577 12.00351432373393
0 OPS 4682 (SNAPSHOT)
1  1314U 65027A   19113.56997056 -.00000003  00000-0 -35355-4 0  9991
2  1314  90.2981 303.5361 0028690 258.9707 160.8301 12.91756450294255
0 OPS 4682 (SNAPSHOT)
1  1314U 65027A   19112.96190582 -.00000032 +00000-0 -14533-3 0  9999
2  1314 090.2981 303.5196 0028618 260.6543 213.0346 12.91756468293774
0 SECOR 4 (EGRS 4)
1  1315U 65027B   19112.83055620 -.00000066 +00000-0 -26998-3 0  9994
2  1315 090.2914 313.8397 0031132 178.1428 242.4548 12.92604633549555
0 SECOR 4 (EGRS 4)
1  1315U 65027B   19113.83714417 -.00000045  00000-0 -19170-3 0  9992
2  1315  90.2913 313.8663 0031215 175.5263 246.4748 12.92604716550077
0 OPS 4682 DEB
1  1316U 65027C   19113.16448427  .00000274  00000-0  67170-3 0  9999
2  1316  90.2808 323.6814 0035279 142.0803 218.2824 13.18616031574857
0 OPS 4682 DEB
1  1316U 65027C   19112.63331624 +.00000307 +00000-0 +75737-3 0  9995
2  1316 090.2808 323.6673 0035194 143.5281 216.8259 13.18616067574330
0 EXPLORER 27
1  1328U 65032A   19112.92956534 +.00000010 +00000-0 +14787-3 0  9998
2  1328 041.1858 032.0157 0255734 037.7662 324.0744 13.38596576638248
0 EXPLORER 27
1  1328U 65032A   19113.30270413  .00000002  00000-0  13646-3 0  9990
2  1328  41.1858  30.4200 0255723  39.7095 322.2082 13.38596621638728
0 SCOUT X-4 R/B
1  1358U 65032B   19112.34311780 -.00000059 +00000-0 +36067-4 0  9995
2  1358 041.1920 072.0113 0258814 333.2616 025.4992 13.38042963637660
0 SCOUT X-4 R/B
1  1358U 65032B   19113.16436925 -.00000055  00000-0  43066-4 0  9998
2  1358  41.1922  68.5025 0258746 337.5214  21.4372 13.38043036638244
0 TITAN 3A TRANSTAGE R/B
1  1359U 65034A   19113.35434354  .00000004  00000-0 -62160-3 0  9995
2  1359  32.1198  74.2009 0489123 336.7333  21.1690  9.17113012809215
0 TITAN 3A TRANSTAGE R/B
1  1359U 65034A   19112.37383127 +.00000002 +00000-0 -11724-2 0  9994
2  1359 032.1195 076.1614 0489133 333.7397 023.9036 09.17112992808795
0 LES 2
1  1360U 65034B   19113.40325275 -.00000036  00000-0  00000+0 0  9990
2  1360  32.1669  84.5039 3966312 281.0084  37.8836  4.64821879916539
0 LCS 1
1  1361U 65034C   19112.55281205 +.00000013 +00000-0 +66967-3 0  9992
2  1361 032.1403 260.2762 0010671 006.6408 353.4229 09.89295832951143
0 OPS 4682 DEB
1  1389U 65027D   19112.93726285 +.00000067 +00000-0 +16248-3 0  9994
2  1389 089.7300 270.7057 0024587 015.0638 103.1106 13.11365781567980
0 OPS 4682 DEB
1  1389U 65027D   19113.01298767  .00000084  00000-0  21138-3 0  9996
2  1389  89.7300 270.7038 0024577  14.8465 100.6135 13.11365814568389
0 SL-8 DEB
1  1392U 65020AH  19112.94768824 -.00000104 +00000-0 +19777-4 0  9991
2  1392 055.8834 030.7837 0342120 217.5511 140.1147 14.47504768713816
0 OPS 8480 (TRANSIT 5B-6)
1  1420U 65048A   19112.95688372 +.00000037 +00000-0 +40213-4 0  9996
2  1420 089.9332 311.0346 0076098 080.0931 040.8937 13.51346562650606
0 OPS 8480 (TRANSIT 5B-6)
1  1420U 65048A   19113.53503508  .00000031  00000-0  31795-4 0  9997
2  1420  89.9331 311.0307 0076089  78.4604 333.4694 13.51346572651119
0 THOR ABLESTAR DEB
1  1425U 65048C   19113.57134921  .00000016  00000-0  94724-5 0  9990
2  1425  89.9295 310.2393 0073142 195.5368 226.5439 13.48767152648846
0 THOR ABLESTAR DEB
1  1425U 65048C   19112.60732694 +.00000024 +00000-0 +22393-4 0  9995
2  1425 089.9296 310.2462 0073046 198.3396 225.6526 13.48767172648242
0 THOR ABLESTAR R/B
1  1428U 65048B   19112.95531053 -.00000003 +00000-0 -18824-4 0  9995
2  1428 089.9293 310.7444 0056123 199.9313 276.4290 13.52503225655534
0 THOR ABLESTAR R/B
1  1428U 65048B   19113.10392958 -.00000004  00000-0 -20501-4 0  9998
2  1428  89.9293 310.7433 0056138 199.4917 280.0651 13.52503233656029
0 TIROS 10
1  1430U 65051A   19113.37981025 -.00000001  00000-0  12659-4 0  9994
2  1430  98.2359 248.4194 0056752  16.3785 343.9221 14.40249122820286
0 TIROS 10
1  1430U 65051A   19112.89350324 -.00000005 +00000-0 +11587-4 0  9995
2  1430 098.2358 247.9514 0056783 017.8434 342.4732 14.40249082819774
0 DELTA 1 R/B
1  1433U 65051B   19112.71104180 +.00000072 +00000-0 +26886-4 0  9997
2  1433 098.4508 189.3261 0044079 063.8054 296.7666 14.56657310814044
0 DELTA 1 R/B
1  1433U 65051B   19113.19187535  .00000067  00000-0  25760-4 0  9999
2  1433  98.4507 189.8135 0044058  62.3604 298.2056 14.56657390834938
0 THOR ABLESTAR DEB
1  1435U 65048D   19112.54823223 +.00000201 +00000-0 +21571-3 0  9991
2  1435 089.9438 313.6927 0066314 219.8317 192.4407 13.69824772668970
0 SL-8 DEB
1  1477U 65020BB  19112.42213517 -.00001031 +00000-0 -13705-2 0  9996
2  1477 055.4944 188.3500 0604968 093.3021 273.7257 12.96500138539081
0 SL-8 DEB
1  1477U 65020BB  19113.11607363 -.00001007  00000-0 -13348-2 0  9995
2  1477  55.4944 186.2660 0604905  94.4085 272.6158 12.96499068539557
0 SL-8 DEB
1  1478U 65020BC  19113.15730253  .00000032  00000-0  84671-4 0  9999
2  1478  56.0890 175.4487 0642063 334.4486  22.5975 13.44673573591614
0 SL-8 DEB
1  1478U 65020BC  19112.33950061 +.00000031 +00000-0 +84465-4 0  9999
2  1478 056.0891 178.0847 0641987 333.1363 023.7641 13.44673267572496
0 SL-8 DEB
1  1479U 65020BD  19112.93865624 +.00000152 +00000-0 +48805-3 0  9997
2  1479 056.0342 355.4620 0762828 031.9823 332.5127 12.58681491467338
0 SL-8 DEB
1  1479U 65020BD  19113.01808318  .00000150  00000-0  48547-3 0  9995
2  1479  56.0343 355.2416 0762827  32.0936 332.4153 12.58681530467710
0 SL-8 DEB
1  1480U 65020BE  19112.33435909 +.00000098 +00000-0 +26850-3 0  9997
2  1480 056.0670 103.6448 0851408 026.3559 337.8188 12.62571934479964
0 SCOUT B R/B
1  1502U 65063B   19112.78040365 -.00000057 +00000-0 -19505-3 0  9992
2  1502 069.2301 243.1941 0783603 085.1513 020.2960 11.78544173310560
0 SCOUT B R/B
1  1502U 65063B   19113.53708545 -.00000061  00000-0 -22322-3 0  9993
2  1502  69.2302 242.0503 0783587  84.5483 350.7164 11.78544071310657
0 THOR ABLESTAR DEB
1  1504U 65065A   19113.87874133  .00000068  00000-0  10666-3 0  9994
2  1504  89.8314 269.5228 0068197  72.4615  44.7895 13.39432427618454
0 THOR ABLESTAR DEB
1  1504U 65065A   19112.90881020 +.00000062 +00000-0 +94625-4 0  9992
2  1504 089.8313 269.5389 0068248 075.1589 047.8794 13.39432301617922
0 THOR ABLESTAR R/B
1  1508U 65065B   19112.90710889 +.00000007 +00000-0 -29642-5 0  9998
2  1508 090.1449 267.2081 0043113 137.4766 333.3516 13.35953285616703
0 DODECAPOLE 2
1  1510U 65065C   19112.75693615 +.00000241 +00000-0 +17279-3 0  9991
2  1510 090.0330 013.0758 0041329 111.8788 248.6791 13.94150822667800
0 DODECAPOLE 2
1  1510U 65065C   19113.18757407  .00000222  00000-0  15789-3 0  9992
2  1510  90.0331  13.0774 0041419 110.5883 249.9744 13.94150902668263
0 THOR ABLESTAR DEB
1  1511U 65065D   19112.91716659 +.00000027 +00000-0 +35201-4 0  9992
2  1511 089.8602 230.1638 0068291 350.9972 126.6907 13.33971022612390
0 THOR ABLESTAR DEB
1  1511U 65065D   19113.89206272  .00000027  00000-0  35120-4 0  9995
2  1511  89.8603 230.1505 0068202 348.2430 128.4437 13.33971065612918
0 TEMPSAT 1
1  1512U 65065E   19112.86140389 +.00000015 +00000-0 +10257-4 0  9999
2  1512 089.8571 231.6340 0070379 025.3595 088.5991 13.33419591611909
0 OPS 8464 (TRANSIT 5B-7)
1  1514U 65065F   19112.96945861 +.00000054 +00000-0 +89522-4 0  9994
2  1514 089.8362 250.4086 0068840 317.5039 164.1920 13.34940815612839
0 OPS 8464 (TRANSIT 5B-7)
1  1514U 65065F   19113.86712847  .00000052  00000-0  84912-4 0  9996
2  1514  89.8364 250.3942 0068787 314.9204 158.2578 13.34940881613361
0 NAVSPASUR ROD 1
1  1515U 65065G   19113.09946969  .00000266  00000-0  40876-3 0  9993
2  1515  89.8876 226.8785 0058910 287.4811 195.6783 13.48666521628481
0 NAVSPASUR ROD 1
1  1515U 65065G   19112.34436992 +.00000281 +00000-0 +43208-3 0  9999
2  1515 089.8875 226.8870 0058898 289.7477 129.4305 13.48666267627934
0 CALSPHERE 4(A)
1  1520U 65065H   19112.93420931 +.00000030 +00000-0 +42657-4 0  9996
2  1520 090.0491 127.2958 0067943 270.8869 171.6189 13.35784956613921
0 THOR ABLESTAR DEB
1  1521U 65065K   19112.78833361 +.00000019 +00000-0 +19489-4 0  9999
2  1521 089.8946 222.0175 0070497 036.2270 085.7740 13.33148681611323
0 THOR ABLESTAR DEB
1  1522U 65065L   19112.95836112 +.00000012 +00000-0 +66760-5 0  9994
2  1522 090.1732 091.5806 0071766 027.0532 025.4429 13.33626450611602
0 SL-8 DEB
1  1549U 65020CV  19112.93676161 +.00000391 +00000-0 +65987-3 0  9996
2  1549 056.1702 031.6710 0850710 097.3027 272.5274 12.62690836484850
0 SL-8 DEB
1  1549U 65020CV  19113.17427674  .00000399  00000-0  67110-3 0  9994
2  1549  56.1703  31.0072 0850731  97.6294 272.1973 12.62691124485335
0 COSMOS 80
1  1570U 65070A   19113.07031378 -.00000080  00000-0  10339-3 0  9993
2  1570  56.0583 357.6438 0103273  21.8228 121.1724 12.52761101454453
0 COSMOS 80
1  1570U 65070A   19112.90024288 -.00000080 +00000-0 +10058-3 0  9994
2  1570 056.0583 358.1052 0103264 021.5932 074.1623 12.52761098453998
0 COSMOS 81
1  1571U 65070B   19112.92870743 -.00000092 +00000-0 +23466-4 0  9993
2  1571 056.0627 035.9303 0088830 174.3952 256.9224 12.48830891446292
0 COSMOS 82
1  1572U 65070C   19112.94911528 -.00000096 +00000-0 -12766-4 0  9999
2  1572 056.0614 042.8599 0076530 011.8041 058.7120 12.45088360438973
0 COSMOS 82
1  1572U 65070C   19113.20669330 -.00000089  00000-0  32932-4 0  9998
2  1572  56.0614  42.1712 0076548  12.1479 133.2582 12.45088377439409
